CCSDS_OMM_VERS = 2.0
CREATION_DATE  = 
ORIGINATOR     = 

OBJECT_NAME    = KUIPER-00177
OBJECT_ID      = 2026-030C
CENTER_NAME    = EARTH
REF_FRAME      = TEME
TIME_SYSTEM    = UTC
MEAN_ELEMENT_THEORY = SGP/SGP4

EPOCH          = 2026-02-24T03:40:03.567648
MEAN_MOTION    = 15.35862711
ECCENTRICITY   = .00005947
INCLINATION    = 51.8840
RA_OF_ASC_NODE = 284.3412
ARG_OF_PERICENTER = 70.9572
MEAN_ANOMALY   = 289.1478

EPHEMERIS_TYPE = 0
CLASSIFICATION_TYPE = U
NORAD_CAT_ID   = 67766
ELEMENT_SET_NO = 999
REV_AT_EPOCH   = 301
BSTAR          = .60922521E-3
MEAN_MOTION_DOT = .21266E-3
MEAN_MOTION_DDOT = 0

CCSDS_OMM_VERS = 2.0
CREATION_DATE  = 
ORIGINATOR     = 

OBJECT_NAME    = KUIPER-00178
OBJECT_ID      = 2026-030D
CENTER_NAME    = EARTH
REF_FRAME      = TEME
TIME_SYSTEM    = UTC
MEAN_ELEMENT_THEORY = SGP/SGP4

EPOCH          = 2026-02-24T02:17:46.791744
MEAN_MOTION    = 15.34884189
ECCENTRICITY   = .00054945
INCLINATION    = 51.8846
RA_OF_ASC_NODE = 284.7074
ARG_OF_PERICENTER = 11.2704
MEAN_ANOMALY   = 348.8404

EPHEMERIS_TYPE = 0
CLASSIFICATION_TYPE = U
NORAD_CAT_ID   = 67767
ELEMENT_SET_NO = 999
REV_AT_EPOCH   = 300
BSTAR          = .75352703E-3
MEAN_MOTION_DOT = .25596E-3
MEAN_MOTION_DDOT = 0

CCSDS_OMM_VERS = 2.0
CREATION_DATE  = 
ORIGINATOR     = 

OBJECT_NAME    = KUIPER-00180
OBJECT_ID      = 2026-030E
CENTER_NAME    = EARTH
REF_FRAME      = TEME
TIME_SYSTEM    = UTC
MEAN_ELEMENT_THEORY = SGP/SGP4

EPOCH          = 2026-02-24T05:45:57.738240
MEAN_MOTION    = 15.32673655
ECCENTRICITY   = .00146206
INCLINATION    = 51.8812
RA_OF_ASC_NODE = 284.1670
ARG_OF_PERICENTER = 29.9924
MEAN_ANOMALY   = 330.1896

EPHEMERIS_TYPE = 0
CLASSIFICATION_TYPE = U
NORAD_CAT_ID   = 67768
ELEMENT_SET_NO = 999
REV_AT_EPOCH   = 302
BSTAR          = -.97239827E-3
MEAN_MOTION_DOT = -.31498E-3
MEAN_MOTION_DDOT = 0

CCSDS_OMM_VERS = 2.0
CREATION_DATE  = 
ORIGINATOR     = 

OBJECT_NAME    = KUIPER-00197
OBJECT_ID      = 2026-030F
CENTER_NAME    = EARTH
REF_FRAME      = TEME
TIME_SYSTEM    = UTC
MEAN_ELEMENT_THEORY = SGP/SGP4

EPOCH          = 2026-02-24T05:15:48.208608
MEAN_MOTION    = 15.35749321
ECCENTRICITY   = .00015414
INCLINATION    = 51.8848
RA_OF_ASC_NODE = 284.0362
ARG_OF_PERICENTER = 67.3323
MEAN_ANOMALY   = 292.7827

EPHEMERIS_TYPE = 0
CLASSIFICATION_TYPE = U
NORAD_CAT_ID   = 67769
ELEMENT_SET_NO = 999
REV_AT_EPOCH   = 302
BSTAR          = .74008939E-3
MEAN_MOTION_DOT = .25837E-3
MEAN_MOTION_DDOT = 0

CCSDS_OMM_VERS = 2.0
CREATION_DATE  = 
ORIGINATOR     = 

OBJECT_NAME    = KUIPER-00198
OBJECT_ID      = 2026-030G
CENTER_NAME    = EARTH
REF_FRAME      = TEME
TIME_SYSTEM    = UTC
MEAN_ELEMENT_THEORY = SGP/SGP4

EPOCH          = 2026-02-24T05:19:44.849568
MEAN_MOTION    = 15.35401143
ECCENTRICITY   = .00024746
INCLINATION    = 51.8822
RA_OF_ASC_NODE = 284.0514
ARG_OF_PERICENTER = 23.5273
MEAN_ANOMALY   = 336.5826

EPHEMERIS_TYPE = 0
CLASSIFICATION_TYPE = U
NORAD_CAT_ID   = 67770
ELEMENT_SET_NO = 999
REV_AT_EPOCH   = 302
BSTAR          = .70662978E-3
MEAN_MOTION_DOT = .24371E-3
MEAN_MOTION_DDOT = 0

CCSDS_OMM_VERS = 2.0
CREATION_DATE  = 
ORIGINATOR     = 

OBJECT_NAME    = KUIPER-00199
OBJECT_ID      = 2026-030H
CENTER_NAME    = EARTH
REF_FRAME      = TEME
TIME_SYSTEM    = UTC
MEAN_ELEMENT_THEORY = SGP/SGP4

EPOCH          = 2026-02-24T05:36:58.990176
MEAN_MOTION    = 15.33793339
ECCENTRICITY   = .00100865
INCLINATION    = 51.8821
RA_OF_ASC_NODE = 284.1268
ARG_OF_PERICENTER = 22.2698
MEAN_ANOMALY   = 337.8724

EPHEMERIS_TYPE = 0
CLASSIFICATION_TYPE = U
NORAD_CAT_ID   = 67771
ELEMENT_SET_NO = 999
REV_AT_EPOCH   = 302
BSTAR          = .77056997E-3
MEAN_MOTION_DOT = .25308E-3
MEAN_MOTION_DDOT = 0

CCSDS_OMM_VERS = 2.0
CREATION_DATE  = 
ORIGINATOR     = 

OBJECT_NAME    = KUIPER-00200
OBJECT_ID      = 2026-030J
CENTER_NAME    = EARTH
REF_FRAME      = TEME
TIME_SYSTEM    = UTC
MEAN_ELEMENT_THEORY = SGP/SGP4

EPOCH          = 2026-02-24T03:35:36.870720
MEAN_MOTION    = 15.36370584
ECCENTRICITY   = .00020833
INCLINATION    = 51.8820
RA_OF_ASC_NODE = 284.3211
ARG_OF_PERICENTER = 161.1189
MEAN_ANOMALY   = 198.9875

EPHEMERIS_TYPE = 0
CLASSIFICATION_TYPE = U
NORAD_CAT_ID   = 67772
ELEMENT_SET_NO = 999
REV_AT_EPOCH   = 301
BSTAR          = .88980651E-3
MEAN_MOTION_DOT = .318E-3
MEAN_MOTION_DDOT = 0

CCSDS_OMM_VERS = 2.0
CREATION_DATE  = 
ORIGINATOR     = 

OBJECT_NAME    = KUIPER-00203
OBJECT_ID      = 2026-030K
CENTER_NAME    = EARTH
REF_FRAME      = TEME
TIME_SYSTEM    = UTC
MEAN_ELEMENT_THEORY = SGP/SGP4

EPOCH          = 2026-02-24T05:40:01.334784
MEAN_MOTION    = 15.33504554
ECCENTRICITY   = .00122458
INCLINATION    = 51.8812
RA_OF_ASC_NODE = 284.1389
ARG_OF_PERICENTER = 23.6072
MEAN_ANOMALY   = 336.5473

EPHEMERIS_TYPE = 0
CLASSIFICATION_TYPE = U
NORAD_CAT_ID   = 67773
ELEMENT_SET_NO = 999
REV_AT_EPOCH   = 302
BSTAR          = .71544414E-3
MEAN_MOTION_DOT = .23265E-3
MEAN_MOTION_DDOT = 0

CCSDS_OMM_VERS = 2.0
CREATION_DATE  = 
ORIGINATOR     = 

OBJECT_NAME    = KUIPER-00205
OBJECT_ID      = 2026-030L
CENTER_NAME    = EARTH
REF_FRAME      = TEME
TIME_SYSTEM    = UTC
MEAN_ELEMENT_THEORY = SGP/SGP4

EPOCH          = 2026-02-24T05:16:43.584960
MEAN_MOTION    = 15.35733127
ECCENTRICITY   = .00022806
INCLINATION    = 51.8825
RA_OF_ASC_NODE = 284.0398
ARG_OF_PERICENTER = 355.2899
MEAN_ANOMALY   = 4.8065

EPHEMERIS_TYPE = 0
CLASSIFICATION_TYPE = U
NORAD_CAT_ID   = 67774
ELEMENT_SET_NO = 999
REV_AT_EPOCH   = 302
BSTAR          = .90073774E-3
MEAN_MOTION_DOT = .31537E-3
MEAN_MOTION_DDOT = 0

CCSDS_OMM_VERS = 2.0
CREATION_DATE  = 
ORIGINATOR     = 

OBJECT_NAME    = KUIPER-00208
OBJECT_ID      = 2026-030M
CENTER_NAME    = EARTH
REF_FRAME      = TEME
TIME_SYSTEM    = UTC
MEAN_ELEMENT_THEORY = SGP/SGP4

EPOCH          = 2026-02-24T02:37:35.487264
MEAN_MOTION    = 15.32840783
ECCENTRICITY   = .00145242
INCLINATION    = 51.8842
RA_OF_ASC_NODE = 284.7969
ARG_OF_PERICENTER = 22.7163
MEAN_ANOMALY   = 337.4462

EPHEMERIS_TYPE = 0
CLASSIFICATION_TYPE = U
NORAD_CAT_ID   = 67775
ELEMENT_SET_NO = 999
REV_AT_EPOCH   = 300
BSTAR          = .55663789E-3
MEAN_MOTION_DOT = .1764E-3
MEAN_MOTION_DDOT = 0

CCSDS_OMM_VERS = 2.0
CREATION_DATE  = 
ORIGINATOR     = 

OBJECT_NAME    = KUIPER-00209
OBJECT_ID      = 2026-030N
CENTER_NAME    = EARTH
REF_FRAME      = TEME
TIME_SYSTEM    = UTC
MEAN_ELEMENT_THEORY = SGP/SGP4

EPOCH          = 2026-02-24T02:36:21.689568
MEAN_MOTION    = 15.32599863
ECCENTRICITY   = .00161739
INCLINATION    = 51.8826
RA_OF_ASC_NODE = 284.7886
ARG_OF_PERICENTER = 24.8189
MEAN_ANOMALY   = 335.3571

EPHEMERIS_TYPE = 0
CLASSIFICATION_TYPE = U
NORAD_CAT_ID   = 67776
ELEMENT_SET_NO = 999
REV_AT_EPOCH   = 300
BSTAR          = .30898129E-2
MEAN_MOTION_DOT = .100044E-2
MEAN_MOTION_DDOT = 0

CCSDS_OMM_VERS = 2.0
CREATION_DATE  = 
ORIGINATOR     = 

OBJECT_NAME    = KUIPER-00213
OBJECT_ID      = 2026-030P
CENTER_NAME    = EARTH
REF_FRAME      = TEME
TIME_SYSTEM    = UTC
MEAN_ELEMENT_THEORY = SGP/SGP4

EPOCH          = 2026-02-24T02:36:20.259648
MEAN_MOTION    = 15.32648269
ECCENTRICITY   = .00129912
INCLINATION    = 51.8825
RA_OF_ASC_NODE = 284.7864
ARG_OF_PERICENTER = 25.9531
MEAN_ANOMALY   = 334.2103

EPHEMERIS_TYPE = 0
CLASSIFICATION_TYPE = U
NORAD_CAT_ID   = 67777
ELEMENT_SET_NO = 999
REV_AT_EPOCH   = 300
BSTAR          = -.69175933E-3
MEAN_MOTION_DOT = -.22508E-3
MEAN_MOTION_DDOT = 0

